{"type": "FeatureCollection", "features": [ {"type": "Feature", "properties": {"norad_id": 34833, "name": "IRIDIUM 33 DEB", "group": "iridium-33-debris", "lat": 55.82653637969917, "lon": 51.06516838833244, "alt_km": 697.3962103971771, "timestamp": "2025-12-24T22:42:22.418576+00:00", "meta": {"OBJECT_NAME": "IRIDIUM 33 DEB", "OBJECT_ID": "1997-051MH", "EPOCH": "2025-12-24T02:45:06.846048", "MEAN_MOTION": 14.52439101, "ECCENTRICITY": 0.00212786, "INCLINATION": 86.392, "RA_OF_ASC_NODE": 46.091, "ARG_OF_PERICENTER": 63.6872, "MEAN_ANOMALY": 327.8102, "EPHEMERIS_TYPE": 0, "CLASSIFICATION_TYPE": "U", "NORAD_CAT_ID": 34833, "ELEMENT_SET_NO": 999, "REV_AT_EPOCH": 87880, "BSTAR": 0.00070605352, "MEAN_MOTION_DOT": 2.906e-05, "MEAN_MOTION_DDOT": 0}, "tle": {"line1": "1 34833U 97051MH  25358.11466257  .00002906  00000+0  70605-3 0  9995", "line2": "2 34833  86.3920  46.0910 0021278  63.6872 327.8102 14.52439101878807"}}, "geometry": {"type": "Point", "coordinates": [51.06516838833244, 55.82653637969917]}}, {"type": "Feature", "properties": {"norad_id": 34870, "name": "IRIDIUM 33 DEB", "group": "iridium-33-debris", "lat": 6.73363959239866, "lon": -51.07072887095319, "alt_km": 650.5446106124618, "timestamp": "2025-12-24T22:42:22.418592+00:00", "meta": {"OBJECT_NAME": "IRIDIUM 33 DEB", "OBJECT_ID": "1997-051MQ", "EPOCH": "2025-12-23T08:19:45.742080", "MEAN_MOTION": 14.76622779, "ECCENTRICITY": 0.00178135, "INCLINATION": 86.3116, "RA_OF_ASC_NODE": 309.2251, "ARG_OF_PERICENTER": 145.0656, "MEAN_ANOMALY": 7.2154, "EPHEMERIS_TYPE": 0, "CLASSIFICATION_TYPE": "U", "NORAD_CAT_ID": 34870, "ELEMENT_SET_NO": 999, "REV_AT_EPOCH": 89067, "BSTAR": 0.001482504, "MEAN_MOTION_DOT": 0.0001041, "MEAN_MOTION_DDOT": 0}, "tle": {"line1": "1 34870U 97051MQ  25357.34705720  .00010410  00000+0  14825-2 0  9991", "line2": "2 34870  86.3116 309.2251 0017813 145.0656   7.2154 14.76622779890678"}}, "geometry": {"type": "Point", "coordinates": [-51.07072887095319, 6.73363959239866]}}, {"type": "Feature", "properties": {"norad_id": 34896, "name": "IRIDIUM 33 DEB", "group": "iridium-33-debris", "lat": 59.816029927492, "lon": 134.87437550674247, "alt_km": 655.4802882470667, "timestamp": "2025-12-24T22:42:22.418609+00:00", "meta": {"OBJECT_NAME": "IRIDIUM 33 DEB", "OBJECT_ID": "1997-051MY", "EPOCH": "2025-12-24T04:12:44.288640", "MEAN_MOTION": 14.66381715, "ECCENTRICITY": 0.00257287, "INCLINATION": 86.3299, "RA_OF_ASC_NODE": 321.5555, "ARG_OF_PERICENTER": 173.6101, "MEAN_ANOMALY": 201.3064, "EPHEMERIS_TYPE": 0, "CLASSIFICATION_TYPE": "U", "NORAD_CAT_ID": 34896, "ELEMENT_SET_NO": 999, "REV_AT_EPOCH": 87787, "BSTAR": 0.00093038371, "MEAN_MOTION_DOT": 5.188e-05, "MEAN_MOTION_DDOT": 0}, "tle": {"line1": "1 34896U 97051MY  25358.17551260  .00005188  00000+0  93038-3 0  9999", "line2": "2 34896  86.3299 321.5555 0025728 173.6101 201.3064 14.66381715877873"}}, "geometry": {"type": "Point", "coordinates": [134.87437550674247, 59.816029927492]}}, {"type": "Feature", "properties": {"norad_id": 34926, "name": "IRIDIUM 33 DEB", "group": "iridium-33-debris", "lat": 55.63680329089939, "lon": 8.289852798267493, "alt_km": 755.1890316896206, "timestamp": "2025-12-24T22:42:22.418625+00:00", "meta": {"OBJECT_NAME": "IRIDIUM 33 DEB", "OBJECT_ID": "1997-051NF", "EPOCH": "2025-12-22T01:22:31.159776", "MEAN_MOTION": 14.5480682, "ECCENTRICITY": 0.00744191, "INCLINATION": 86.1317, "RA_OF_ASC_NODE": 3.9511, "ARG_OF_PERICENTER": 260.4851, "MEAN_ANOMALY": 154.6666, "EPHEMERIS_TYPE": 0, "CLASSIFICATION_TYPE": "U", "NORAD_CAT_ID": 34926, "ELEMENT_SET_NO": 999, "REV_AT_EPOCH": 86592, "BSTAR": 0.0057923661, "MEAN_MOTION_DOT": 0.00025863, "MEAN_MOTION_DDOT": 0}, "tle": {"line1": "1 34926U 97051NF  25356.05730509  .00025863  00000+0  57924-2 0  9998", "line2": "2 34926  86.1317   3.9511 0074419 260.4851 154.6666 14.54806820865924"}}, "geometry": {"type": "Point", "coordinates": [8.289852798267493, 55.63680329089939]}}, {"type": "Feature", "properties": {"norad_id": 34985, "name": "IRIDIUM 33 DEB", "group": "iridium-33-debris", "lat": -14.541226090438688, "lon": 50.72774046566054, "alt_km": 771.6922518243182, "timestamp": "2025-12-24T22:42:22.418642+00:00", "meta": {"OBJECT_NAME": "IRIDIUM 33 DEB", "OBJECT_ID": "1997-051NR", "EPOCH": "2025-12-24T02:55:34.002912", "MEAN_MOTION": 14.42055036, "ECCENTRICITY": 0.00219831, "INCLINATION": 86.3683, "RA_OF_ASC_NODE": 52.0233, "ARG_OF_PERICENTER": 181.7757, "MEAN_ANOMALY": 207.8288, "EPHEMERIS_TYPE": 0, "CLASSIFICATION_TYPE": "U", "NORAD_CAT_ID": 34985, "ELEMENT_SET_NO": 999, "REV_AT_EPOCH": 87339, "BSTAR": 0.0006443883, "MEAN_MOTION_DOT": 2.141e-05, "MEAN_MOTION_DDOT": 0}, "tle": {"line1": "1 34985U 97051NR  25358.12192133  .00002141  00000+0  64439-3 0  9992", "line2": "2 34985  86.3683  52.0233 0021983 181.7757 207.8288 14.42055036873394"}}, "geometry": {"type": "Point", "coordinates": [50.72774046566054, -14.541226090438688]}}, {"type": "Feature", "properties": {"norad_id": 35051, "name": "IRIDIUM 33 DEB", "group": "iridium-33-debris", "lat": 16.244588992680402, "lon": -177.5313959757067, "alt_km": 736.2778622539226, "timestamp": "2025-12-24T22:42:22.418658+00:00", "meta": {"OBJECT_NAME": "IRIDIUM 33 DEB", "OBJECT_ID": "1997-051NX", "EPOCH": "2025-12-22T18:31:37.744896", "MEAN_MOTION": 14.47639956, "ECCENTRICITY": 0.0010302, "INCLINATION": 86.324, "RA_OF_ASC_NODE": 4.4893, "ARG_OF_PERICENTER": 63.2582, "MEAN_ANOMALY": 296.9674, "EPHEMERIS_TYPE": 0, "CLASSIFICATION_TYPE": "U", "NORAD_CAT_ID": 35051, "ELEMENT_SET_NO": 999, "REV_AT_EPOCH": 87141, "BSTAR": 0.00060447572, "MEAN_MOTION_DOT": 2.248e-05, "MEAN_MOTION_DDOT": 0}, "tle": {"line1": "1 35051U 97051NX  25356.77196464  .00002248  00000+0  60448-3 0  9991", "line2": "2 35051  86.3240   4.4893 0010302  63.2582 296.9674 14.47639956871417"}}, "geometry": {"type": "Point", "coordinates": [-177.5313959757067, 16.244588992680402]}}, {"type": "Feature", "properties": {"norad_id": 35052, "name": "IRIDIUM 33 DEB", "group": "iridium-33-debris", "lat": -85.7403918641445, "lon": -44.26910702947937, "alt_km": 777.8999100696201, "timestamp": "2025-12-24T22:42:22.418676+00:00", "meta": {"OBJECT_NAME": "IRIDIUM 33 DEB", "OBJECT_ID": "1997-051NY", "EPOCH": "2025-12-23T18:44:00.353760", "MEAN_MOTION": 14.38504324, "ECCENTRICITY": 0.00131737, "INCLINATION": 86.33, "RA_OF_ASC_NODE": 15.7419, "ARG_OF_PERICENTER": 54.1122, "MEAN_ANOMALY": 306.1297, "EPHEMERIS_TYPE": 0, "CLASSIFICATION_TYPE": "U", "NORAD_CAT_ID": 35052, "ELEMENT_SET_NO": 999, "REV_AT_EPOCH": 87434, "BSTAR": 0.00016915934, "MEAN_MOTION_DOT": 5.37e-06, "MEAN_MOTION_DDOT": 0}, "tle": {"line1": "1 35052U 97051NY  25357.78055965  .00000537  00000+0  16916-3 0  9994", "line2": "2 35052  86.3300  15.7419 0013173  54.1122 306.1297 14.38504324874342"}}, "geometry": {"type": "Point", "coordinates": [-44.26910702947937, -85.7403918641445]}}, {"type": "Feature", "properties": {"norad_id": 35080, "name": "IRIDIUM 33 DEB", "group": "iridium-33-debris", "lat": 43.05424099954719, "lon": 50.090623067247456, "alt_km": 605.3747304514627, "timestamp": "2025-12-24T22:42:22.418691+00:00", "meta": {"OBJECT_NAME": "IRIDIUM 33 DEB", "OBJECT_ID": "1997-051PF", "EPOCH": "2025-12-24T03:08:07.207008", "MEAN_MOTION": 14.87285767, "ECCENTRICITY": 0.00582666, "INCLINATION": 86.2065, "RA_OF_ASC_NODE": 46.9271, "ARG_OF_PERICENTER": 140.2548, "MEAN_ANOMALY": 220.2968, "EPHEMERIS_TYPE": 0, "CLASSIFICATION_TYPE": "U", "NORAD_CAT_ID": 35080, "ELEMENT_SET_NO": 999, "REV_AT_EPOCH": 69857, "BSTAR": 0.0059641205, "MEAN_MOTION_DOT": 0.00055854, "MEAN_MOTION_DDOT": 0}, "tle": {"line1": "1 35080U 97051PF  25358.13063897  .00055854  00000+0  59641-2 0  9991", "line2": "2 35080  86.2065  46.9271 0058266 140.2548 220.2968 14.87285767698574"}}, "geometry": {"type": "Point", "coordinates": [50.090623067247456, 43.05424099954719]}}, {"type": "Feature", "properties": {"norad_id": 35297, "name": "IRIDIUM 33 DEB", "group": "iridium-33-debris", "lat": 67.18580948676885, "lon": -131.09462373991897, "alt_km": 722.0439161262466, "timestamp": "2025-12-24T22:42:22.418702+00:00", "meta": {"OBJECT_NAME": "IRIDIUM 33 DEB", "OBJECT_ID": "1997-051PM", "EPOCH": "2025-12-22T21:59:54.464640", "MEAN_MOTION": 14.45198443, "ECCENTRICITY": 0.0018277, "INCLINATION": 86.3852, "RA_OF_ASC_NODE": 58.4147, "ARG_OF_PERICENTER": 110.0569, "MEAN_ANOMALY": 250.2602, "EPHEMERIS_TYPE": 0, "CLASSIFICATION_TYPE": "U", "NORAD_CAT_ID": 35297, "ELEMENT_SET_NO": 999, "REV_AT_EPOCH": 70573, "BSTAR": 0.00060275, "MEAN_MOTION_DOT": 2.134e-05, "MEAN_MOTION_DDOT": 0}, "tle": {"line1": "1 35297U 97051PM  25356.91660260  .00002134  00000+0  60275-3 0  9991", "line2": "2 35297  86.3852  58.4147 0018277 110.0569 250.2602 14.45198443705738"}}, "geometry": {"type": "Point", "coordinates": [-131.09462373991897, 67.18580948676885]}}, {"type": "Feature", "properties": {"norad_id": 35299, "name": "IRIDIUM 33 DEB", "group": "iridium-33-debris", "lat": -37.29263875589411, "lon": -149.2940701163203, "alt_km": 799.4231041458443, "timestamp": "2025-12-24T22:42:22.418712+00:00", "meta": {"OBJECT_NAME": "IRIDIUM 33 DEB", "OBJECT_ID": "1997-051PP", "EPOCH": "2025-12-24T01:50:23.136288", "MEAN_MOTION": 14.40915431, "ECCENTRICITY": 0.00586169, "INCLINATION": 86.2874, "RA_OF_ASC_NODE": 28.25, "ARG_OF_PERICENTER": 66.2729, "MEAN_ANOMALY": 323.5489, "EPHEMERIS_TYPE": 0, "CLASSIFICATION_TYPE": "U", "NORAD_CAT_ID": 35299, "ELEMENT_SET_NO": 999, "REV_AT_EPOCH": 86494, "BSTAR": 0.00082499337, "MEAN_MOTION_DOT": 2.72e-05, "MEAN_MOTION_DDOT": 0}, "tle": {"line1": "1 35299U 97051PP  25358.07665667  .00002720  00000+0  82499-3 0  9991", "line2": "2 35299  86.2874  28.2500 0058616  66.2729 323.5489 14.40915431864947"}}, "geometry": {"type": "Point", "coordinates": [-149.2940701163203, -37.29263875589411]}}]}